[{"OBJECT_NAME":"IRIDIUM 167","OBJECT_ID":"2019-002K","EPOCH":"2026-03-09T22:39:34.779456","MEAN_MOTION":14.34218835,"ECCENTRICITY":0.00018219,"INCLINATION":86.3972,"RA_OF_ASC_NODE":35.0554,"ARG_OF_PERICENTER":93.0141,"MEAN_ANOMALY":267.1263,"EPHEMERIS_TYPE":0,"CLASSIFICATION_TYPE":"U","NORAD_CAT_ID":43931,"ELEMENT_SET_NO":999,"REV_AT_EPOCH":37473,"BSTAR":-8.039993e-6,"MEAN_MOTION_DOT":-3.0e-8,"MEAN_MOTION_DDOT":0},{"OBJECT_NAME":"COSMOS 1190","OBJECT_ID":"1980-056A","EPOCH":"2026-03-09T18:25:53.967936","MEAN_MOTION":14.34623426,"ECCENTRICITY":0.00124489,"INCLINATION":74.0455,"RA_OF_ASC_NODE":218.0371,"ARG_OF_PERICENTER":84.2805,"MEAN_ANOMALY":275.9767,"EPHEMERIS_TYPE":0,"CLASSIFICATION_TYPE":"U","NORAD_CAT_ID":11869,"ELEMENT_SET_NO":999,"REV_AT_EPOCH":36603,"BSTAR":9.8440391e-5,"MEAN_MOTION_DOT":2.52e-6,"MEAN_MOTION_DDOT":0}]
